{
  "links" : {
    "next" : "https://api.nasa.gov/neo/rest/v1/feed?start_date=2013-02-09&end_date=2013-02-09&detailed=true&api_key=t0TVs3DtDT2H8Oy2Zy8m2eVrNsAVKAexjcZXUckd",
    "prev" : "https://api.nasa.gov/neo/rest/v1/feed?start_date=2013-02-07&end_date=2013-02-07&detailed=true&api_key=t0TVs3DtDT2H8Oy2Zy8m2eVrNsAVKAexjcZXUckd",
    "self" : "https://api.nasa.gov/neo/rest/v1/feed?start_date=2013-02-08&end_date=2013-02-08&detailed=true&api_key=t0TVs3DtDT2H8Oy2Zy8m2eVrNsAVKAexjcZXUckd"
  },
  "element_count" : 5,
  "near_earth_objects" : {
    "2013-02-08" : [ {
      "links" : {
        "self" : "https://api.nasa.gov/neo/rest/v1/neo/3627104?api_key=t0TVs3DtDT2H8Oy2Zy8m2eVrNsAVKAexjcZXUckd"
      },
      "neo_reference_id" : "3627104",
      "name" : "(2013 DT)",
      "nasa_jpl_url" : "http://ssd.jpl.nasa.gov/sbdb.cgi?sstr=3627104",
      "absolute_magnitude_h" : 23.6,
      "estimated_diameter" : {
        "kilometers" : {
          "estimated_diameter_min" : 0.0506471459,
          "estimated_diameter_max" : 0.1132504611
        },
        "meters" : {
          "estimated_diameter_min" : 50.6471458835,
          "estimated_diameter_max" : 113.2504610618
        },
        "miles" : {
          "estimated_diameter_min" : 0.0314706677,
          "estimated_diameter_max" : 0.0703705522
        },
        "feet" : {
          "estimated_diameter_min" : 166.1651821003,
          "estimated_diameter_max" : 371.5566426699
        }
      },
      "is_potentially_hazardous_asteroid" : false,
      "close_approach_data" : [ {
        "close_approach_date" : "2013-02-08",
        "epoch_date_close_approach" : 1360310400000,
        "relative_velocity" : {
          "kilometers_per_second" : "20.1289404543",
          "kilometers_per_hour" : "72464.1856354354",
          "miles_per_hour" : "45026.4269021959"
        },
        "miss_distance" : {
          "astronomical" : "0.0571108005",
          "lunar" : "22.2161026001",
          "kilometers" : "8543654",
          "miles" : "5308780.5"
        },
        "orbiting_body" : "Earth"
      } ],
      "orbital_data" : {
        "orbit_id" : "5",
        "orbit_determination_date" : "2017-04-06 08:46:43",
        "orbit_uncertainty" : "9",
        "minimum_orbit_intersection" : ".0570464",
        "jupiter_tisserand_invariant" : "4.832",
        "epoch_osculation" : "2456341.5",
        "eccentricity" : ".5691247908523243",
        "semi_major_axis" : "1.279424706757667",
        "inclination" : "20.22145938609697",
        "ascending_node_longitude" : "327.2505695155176",
        "orbital_period" : "528.5919275210671",
        "perihelion_distance" : ".5512723881129133",
        "perihelion_argument" : "66.72158641903833",
        "aphelion_distance" : "2.00757702540242",
        "perihelion_time" : "2456275.456087156829",
        "mean_anomaly" : "44.97951517164245",
        "mean_motion" : ".6810546685574426",
        "equinox" : "J2000"
      }
    }, {
      "links" : {
        "self" : "https://api.nasa.gov/neo/rest/v1/neo/2011284?api_key=t0TVs3DtDT2H8Oy2Zy8m2eVrNsAVKAexjcZXUckd"
      },
      "neo_reference_id" : "2011284",
      "name" : "11284 Belenus (1990 BA)",
      "nasa_jpl_url" : "http://ssd.jpl.nasa.gov/sbdb.cgi?sstr=2011284",
      "absolute_magnitude_h" : 18.2,
      "estimated_diameter" : {
        "kilometers" : {
          "estimated_diameter_min" : 0.6089126221,
          "estimated_diameter_max" : 1.3615700154
        },
        "meters" : {
          "estimated_diameter_min" : 608.9126221057,
          "estimated_diameter_max" : 1361.5700153859
        },
        "miles" : {
          "estimated_diameter_min" : 0.3783606449,
          "estimated_diameter_max" : 0.846040122
        },
        "feet" : {
          "estimated_diameter_min" : 1997.7448871092,
          "estimated_diameter_max" : 4467.0933692788
        }
      },
      "is_potentially_hazardous_asteroid" : false,
      "close_approach_data" : [ {
        "close_approach_date" : "2013-02-08",
        "epoch_date_close_approach" : 1360310400000,
        "relative_velocity" : {
          "kilometers_per_second" : "2.0462184209",
          "kilometers_per_hour" : "7366.3863151803",
          "miles_per_hour" : "4577.1859856741"
        },
        "miss_distance" : {
          "astronomical" : "0.2444873574",
          "lunar" : "95.1055831909",
          "kilometers" : "36574788",
          "miles" : "22726520"
        },
        "orbiting_body" : "Earth"
      } ],
      "orbital_data" : {
        "orbit_id" : "115",
        "orbit_determination_date" : "2017-04-06 09:29:53",
        "orbit_uncertainty" : "0",
        "minimum_orbit_intersection" : ".170564",
        "jupiter_tisserand_invariant" : "4.078",
        "epoch_osculation" : "2458000.5",
        "eccentricity" : ".3371993778096648",
        "semi_major_axis" : "1.740119076613371",
        "inclination" : "1.992348531290699",
        "ascending_node_longitude" : "311.7872558116018",
        "orbital_period" : "838.4301343596806",
        "perihelion_distance" : "1.153352006664614",
        "perihelion_argument" : "171.0076160888621",
        "aphelion_distance" : "2.326886146562129",
        "perihelion_time" : "2457981.598318364495",
        "mean_anomaly" : "8.115888384639746",
        "mean_motion" : ".429373880120538",
        "equinox" : "J2000"
      }
    }, {
      "links" : {
        "self" : "https://api.nasa.gov/neo/rest/v1/neo/3661495?api_key=t0TVs3DtDT2H8Oy2Zy8m2eVrNsAVKAexjcZXUckd"
      },
      "neo_reference_id" : "3661495",
      "name" : "(2014 CF13)",
      "nasa_jpl_url" : "http://ssd.jpl.nasa.gov/sbdb.cgi?sstr=3661495",
      "absolute_magnitude_h" : 25.0,
      "estimated_diameter" : {
        "kilometers" : {
          "estimated_diameter_min" : 0.02658,
          "estimated_diameter_max" : 0.0594346868
        },
        "meters" : {
          "estimated_diameter_min" : 26.58,
          "estimated_diameter_max" : 59.4346868419
        },
        "miles" : {
          "estimated_diameter_min" : 0.0165160412,
          "estimated_diameter_max" : 0.0369309908
        },
        "feet" : {
          "estimated_diameter_min" : 87.2047272,
          "estimated_diameter_max" : 194.9956979785
        }
      },
      "is_potentially_hazardous_asteroid" : false,
      "close_approach_data" : [ {
        "close_approach_date" : "2013-02-08",
        "epoch_date_close_approach" : 1360310400000,
        "relative_velocity" : {
          "kilometers_per_second" : "12.9057820399",
          "kilometers_per_hour" : "46460.8153436177",
          "miles_per_hour" : "28868.9438450384"
        },
        "miss_distance" : {
          "astronomical" : "0.1970984906",
          "lunar" : "76.6713104248",
          "kilometers" : "29485516",
          "miles" : "18321450"
        },
        "orbiting_body" : "Earth"
      } ],
      "orbital_data" : {
        "orbit_id" : "8",
        "orbit_determination_date" : "2017-04-06 08:42:31",
        "orbit_uncertainty" : "7",
        "minimum_orbit_intersection" : ".0257584",
        "jupiter_tisserand_invariant" : "5.861",
        "epoch_osculation" : "2458000.5",
        "eccentricity" : ".2941894536936857",
        "semi_major_axis" : "1.021897639123627",
        "inclination" : "24.69737710655295",
        "ascending_node_longitude" : "323.0772005852693",
        "orbital_period" : "377.3197348524952",
        "perihelion_distance" : ".7212661309389796",
        "perihelion_argument" : "73.70968106072306",
        "aphelion_distance" : "1.322529147308273",
        "perihelion_time" : "2458134.284360536826",
        "mean_anomaly" : "232.3566107346989",
        "mean_motion" : ".9540979883830727",
        "equinox" : "J2000"
      }
    } ]
  }
}